[{"OBJECT_NAME":"STARLINK-2342","OBJECT_ID":"2021-021Z","EPOCH":"2025-10-24T19:43:30.764640","MEAN_MOTION":15.06393021,"ECCENTRICITY":0.0001214,"INCLINATION":53.0517,"RA_OF_ASC_NODE":166.558,"ARG_OF_PERICENTER":110.1257,"MEAN_ANOMALY":249.9863,"EPHEMERIS_TYPE":0,"CLASSIFICATION_TYPE":"U","NORAD_CAT_ID":47883,"ELEMENT_SET_NO":999,"REV_AT_EPOCH":25581,"BSTAR":7.5867e-5,"MEAN_MOTION_DOT":8.49e-6,"MEAN_MOTION_DDOT":0},{"OBJECT_NAME":"STARLINK-2343","OBJECT_ID":"2021-021AA","EPOCH":"2025-10-24T20:54:30.188736","MEAN_MOTION":15.06397081,"ECCENTRICITY":0.0001384,"INCLINATION":53.0514,"RA_OF_ASC_NODE":171.3341,"ARG_OF_PERICENTER":76.2224,"MEAN_ANOMALY":283.8919,"EPHEMERIS_TYPE":0,"CLASSIFICATION_TYPE":"U","NORAD_CAT_ID":47884,"ELEMENT_SET_NO":999,"REV_AT_EPOCH":25557,"BSTAR":-9.0436e-5,"MEAN_MOTION_DOT":-1.628e-5,"MEAN_MOTION_DDOT":0},{"OBJECT_NAME":"STARLINK-2346","OBJECT_ID":"2021-021AD","EPOCH":"2025-10-24T19:45:30.516768","MEAN_MOTION":15.06396862,"ECCENTRICITY":0.0001697,"INCLINATION":53.0559,"RA_OF_ASC_NODE":171.5525,"ARG_OF_PERICENTER":97.8956,"MEAN_ANOMALY":262.2226,"EPHEMERIS_TYPE":0,"CLASSIFICATION_TYPE":"U","NORAD_CAT_ID":47887,"ELEMENT_SET_NO":999,"REV_AT_EPOCH":25557,"BSTAR":8.0781e-5,"MEAN_MOTION_DOT":9.22e-6,"MEAN_MOTION_DDOT":0},{"OBJECT_NAME":"STARLINK-2354","OBJECT_ID":"2021-021AL","EPOCH":"2025-10-24T21:17:04.039584","MEAN_MOTION":15.06402358,"ECCENTRICITY":0.0001302,"INCLINATION":53.0531,"RA_OF_ASC_NODE":161.2649,"ARG_OF_PERICENTER":86.8125,"MEAN_ANOMALY":273.3013,"EPHEMERIS_TYPE":0,"CLASSIFICATION_TYPE":"U","NORAD_CAT_ID":47894,"ELEMENT_SET_NO":999,"REV_AT_EPOCH":25567,"BSTAR":0.00011375,"MEAN_MOTION_DOT":1.413e-5,"MEAN_MOTION_DDOT":0},{"OBJECT_NAME":"STARLINK-2355","OBJECT_ID":"2021-021AM","EPOCH":"2025-10-24T19:57:27.126144","MEAN_MOTION":15.0639397,"ECCENTRICITY":0.0001378,"INCLINATION":53.0528,"RA_OF_ASC_NODE":161.5114,"ARG_OF_PERICENTER":100.3677,"MEAN_ANOMALY":259.7467,"EPHEMERIS_TYPE":0,"CLASSIFICATION_TYPE":"U","NORAD_CAT_ID":47895,"ELEMENT_SET_NO":999,"REV_AT_EPOCH":25569,"BSTAR":8.9741e-5,"MEAN_MOTION_DOT":1.055e-5,"MEAN_MOTION_DDOT":0},{"OBJECT_NAME":"STARLINK-2356","OBJECT_ID":"2021-021AN","EPOCH":"2025-10-24T19:47:27.470400","MEAN_MOTION":15.0639342,"ECCENTRICITY":0.0001364,"INCLINATION":53.0527,"RA_OF_ASC_NODE":176.542,"ARG_OF_PERICENTER":110.1009,"MEAN_ANOMALY":250.0127,"EPHEMERIS_TYPE":0,"CLASSIFICATION_TYPE":"U","NORAD_CAT_ID":47896,"ELEMENT_SET_NO":999,"REV_AT_EPOCH":25545,"BSTAR":-0.0001058,"MEAN_MOTION_DOT":-1.857e-5,"MEAN_MOTION_DDOT":0},{"OBJECT_NAME":"STARLINK-2358","OBJECT_ID":"2021-021AQ","EPOCH":"2025-10-24T19:46:50.437632","MEAN_MOTION":15.06392489,"ECCENTRICITY":0.0001446,"INCLINATION":53.0528,"RA_OF_ASC_NODE":161.5452,"ARG_OF_PERICENTER":92.5044,"MEAN_ANOMALY":267.611,"EPHEMERIS_TYPE":0,"CLASSIFICATION_TYPE":"U","NORAD_CAT_ID":47898,"ELEMENT_SET_NO":999,"REV_AT_EPOCH":25566,"BSTAR":0.00015597,"MEAN_MOTION_DOT":2.042e-5,"MEAN_MOTION_DDOT":0},{"OBJECT_NAME":"STARLINK-2361","OBJECT_ID":"2021-021AT","EPOCH":"2025-10-24T19:26:56.044896","MEAN_MOTION":15.06406069,"ECCENTRICITY":0.0002161,"INCLINATION":53.0522,"RA_OF_ASC_NODE":151.6903,"ARG_OF_PERICENTER":97.2125,"MEAN_ANOMALY":262.911,"EPHEMERIS_TYPE":0,"CLASSIFICATION_TYPE":"U","NORAD_CAT_ID":47901,"ELEMENT_SET_NO":999,"REV_AT_EPOCH":25584,"BSTAR":6.2481e-5,"MEAN_MOTION_DOT":6.49e-6,"MEAN_MOTION_DDOT":0},{"OBJECT_NAME":"STARLINK-2363","OBJECT_ID":"2021-021AV","EPOCH":"2025-10-24T19:36:09.012672","MEAN_MOTION":15.06388673,"ECCENTRICITY":0.0001066,"INCLINATION":53.0522,"RA_OF_ASC_NODE":151.5668,"ARG_OF_PERICENTER":97.571,"MEAN_ANOMALY":262.54,"EPHEMERIS_TYPE":0,"CLASSIFICATION_TYPE":"U","NORAD_CAT_ID":47903,"ELEMENT_SET_NO":999,"REV_AT_EPOCH":25619,"BSTAR":0.0011556,"MEAN_MOTION_DOT":0.00016968,"MEAN_MOTION_DDOT":0},{"OBJECT_NAME":"STARLINK-2364","OBJECT_ID":"2021-021AW","EPOCH":"2025-10-24T21:07:46.032960","MEAN_MOTION":15.06397803,"ECCENTRICITY":0.0001217,"INCLINATION":53.0523,"RA_OF_ASC_NODE":151.292,"ARG_OF_PERICENTER":84.7742,"MEAN_ANOMALY":275.3386,"EPHEMERIS_TYPE":0,"CLASSIFICATION_TYPE":"U","NORAD_CAT_ID":47904,"ELEMENT_SET_NO":999,"REV_AT_EPOCH":25584,"BSTAR":0.00050281,"MEAN_MOTION_DOT":7.215e-5,"MEAN_MOTION_DDOT":0},{"OBJECT_NAME":"STARLINK-2367","OBJECT_ID":"2021-021AZ","EPOCH":"2025-10-24T19:40:08.404608","MEAN_MOTION":15.06431746,"ECCENTRICITY":0.0001122,"INCLINATION":53.052,"RA_OF_ASC_NODE":171.566,"ARG_OF_PERICENTER":57.8481,"MEAN_ANOMALY":302.2617,"EPHEMERIS_TYPE":0,"CLASSIFICATION_TYPE":"U","NORAD_CAT_ID":47907,"ELEMENT_SET_NO":999,"REV_AT_EPOCH":25553,"BSTAR":-0.0016151,"MEAN_MOTION_DOT":-0.00024277,"MEAN_MOTION_DDOT":0},{"OBJECT_NAME":"STARLINK-2368","OBJECT_ID":"2021-021BA","EPOCH":"2025-10-24T20:00:03.000384","MEAN_MOTION":15.52375098,"ECCENTRICITY":0.0001117,"INCLINATION":53.0539,"RA_OF_ASC_NODE":166.5858,"ARG_OF_PERICENTER":95.5592,"MEAN_ANOMALY":296.9549,"EPHEMERIS_TYPE":0,"CLASSIFICATION_TYPE":"U","NORAD_CAT_ID":47908,"ELEMENT_SET_NO":999,"REV_AT_EPOCH":578,"BSTAR":0.016052,"MEAN_MOTION_DOT":0.01084003,"MEAN_MOTION_DDOT":0},{"OBJECT_NAME":"STARLINK-2370","OBJECT_ID":"2021-021BC","EPOCH":"2025-10-24T19:52:10.630848","MEAN_MOTION":15.06398965,"ECCENTRICITY":0.0001244,"INCLINATION":53.0522,"RA_OF_ASC_NODE":161.6861,"ARG_OF_PERICENTER":92.524,"MEAN_ANOMALY":267.5891,"EPHEMERIS_TYPE":0,"CLASSIFICATION_TYPE":"U","NORAD_CAT_ID":47910,"ELEMENT_SET_NO":999,"REV_AT_EPOCH":25572,"BSTAR":0.00011971,"MEAN_MOTION_DOT":1.502e-5,"MEAN_MOTION_DDOT":0},{"OBJECT_NAME":"STARLINK-2371","OBJECT_ID":"2021-021BD","EPOCH":"2025-10-24T19:52:48.721152","MEAN_MOTION":15.06428488,"ECCENTRICITY":0.000166,"INCLINATION":53.0535,"RA_OF_ASC_NODE":176.7671,"ARG_OF_PERICENTER":89.4299,"MEAN_ANOMALY":270.688,"EPHEMERIS_TYPE":0,"CLASSIFICATION_TYPE":"U","NORAD_CAT_ID":47911,"ELEMENT_SET_NO":999,"REV_AT_EPOCH":25534,"BSTAR":0.00043093,"MEAN_MOTION_DOT":6.148e-5,"MEAN_MOTION_DDOT":0},{"OBJECT_NAME":"STARLINK-2378","OBJECT_ID":"2021-021BJ","EPOCH":"2025-10-24T19:16:18.416352","MEAN_MOTION":15.06401139,"ECCENTRICITY":0.0002091,"INCLINATION":53.0512,"RA_OF_ASC_NODE":151.6408,"ARG_OF_PERICENTER":85.1895,"MEAN_ANOMALY":274.9333,"EPHEMERIS_TYPE":0,"CLASSIFICATION_TYPE":"U","NORAD_CAT_ID":47916,"ELEMENT_SET_NO":999,"REV_AT_EPOCH":25583,"BSTAR":6.0144e-5,"MEAN_MOTION_DOT":6.14e-6,"MEAN_MOTION_DDOT":0},{"OBJECT_NAME":"STARLINK-2405","OBJECT_ID":"2021-021BM","EPOCH":"2025-10-24T19:13:39.360000","MEAN_MOTION":15.06396138,"ECCENTRICITY":0.0001496,"INCLINATION":53.0517,"RA_OF_ASC_NODE":171.6466,"ARG_OF_PERICENTER":87.3715,"MEAN_ANOMALY":272.7445,"EPHEMERIS_TYPE":0,"CLASSIFICATION_TYPE":"U","NORAD_CAT_ID":47919,"ELEMENT_SET_NO":999,"REV_AT_EPOCH":25555,"BSTAR":0.00045947,"MEAN_MOTION_DOT":6.568e-5,"MEAN_MOTION_DDOT":0},{"OBJECT_NAME":"STARLINK-1647","OBJECT_ID":"2021-024B","EPOCH":"2025-10-24T19:56:45.540096","MEAN_MOTION":15.06408699,"ECCENTRICITY":0.0002207,"INCLINATION":53.0552,"RA_OF_ASC_NODE":226.5137,"ARG_OF_PERICENTER":89.9135,"MEAN_ANOMALY":270.2107,"EPHEMERIS_TYPE":0,"CLASSIFICATION_TYPE":"U","NORAD_CAT_ID":47978,"ELEMENT_SET_NO":999,"REV_AT_EPOCH":25408,"BSTAR":0.0001848,"MEAN_MOTION_DOT":2.473e-5,"MEAN_MOTION_DDOT":0}]
