STARLINK-2342           
1 47883U 21021Z   25297.82188385  .00000849  00000+0  75867-4 0  9991
2 47883  53.0517 166.5580 0001214 110.1257 249.9863 15.06393021255811
STARLINK-2343           
1 47884U 21021AA  25297.87118274 -.00001628  00000+0 -90436-4 0  9994
2 47884  53.0514 171.3341 0001384  76.2224 283.8919 15.06397081255574
STARLINK-2346           
1 47887U 21021AD  25297.82326987  .00000922  00000+0  80781-4 0  9990
2 47887  53.0559 171.5525 0001697  97.8956 262.2226 15.06396862255578
STARLINK-2354           
1 47894U 21021AL  25297.88685231  .00001413  00000+0  11375-3 0  9992
2 47894  53.0531 161.2649 0001302  86.8125 273.3013 15.06402358255674
STARLINK-2355           
1 47895U 21021AM  25297.83156396  .00001055  00000+0  89741-4 0  9998
2 47895  53.0528 161.5114 0001378 100.3677 259.7467 15.06393970255690
STARLINK-2356           
1 47896U 21021AN  25297.82462350 -.00001857  00000+0 -10580-3 0  9994
2 47896  53.0527 176.5420 0001364 110.1009 250.0127 15.06393420255450
STARLINK-2358           
1 47898U 21021AQ  25297.82419488  .00002042  00000+0  15597-3 0  9998
2 47898  53.0528 161.5452 0001446  92.5044 267.6110 15.06392489255668
STARLINK-2361           
1 47901U 21021AT  25297.81037089  .00000649  00000+0  62481-4 0  9991
2 47901  53.0522 151.6903 0002161  97.2125 262.9110 15.06406069255843
STARLINK-2363           
1 47903U 21021AV  25297.81677098  .00016968  00000+0  11556-2 0  9999
2 47903  53.0522 151.5668 0001066  97.5710 262.5400 15.06388673256195
STARLINK-2364           
1 47904U 21021AW  25297.88039390  .00007215  00000+0  50281-3 0  9998
2 47904  53.0523 151.2920 0001217  84.7742 275.3386 15.06397803255847
STARLINK-2367           
1 47907U 21021AZ  25297.81954172 -.00024277  00000+0 -16151-2 0  9994
2 47907  53.0520 171.5660 0001122  57.8481 302.2617 15.06431746255537
STARLINK-2368           
1 47908U 21021BA  25297.83336806  .01084003  00000+0  16052-1 0  9996
2 47908  53.0539 166.5858 0001117  95.5592 296.9549 15.52375098  5788
STARLINK-2370           
1 47910U 21021BC  25297.82790082  .00001502  00000+0  11971-3 0  9997
2 47910  53.0522 161.6861 0001244  92.5240 267.5891 15.06398965255723
STARLINK-2371           
1 47911U 21021BD  25297.82834168  .00006148  00000+0  43093-3 0  9993
2 47911  53.0535 176.7671 0001660  89.4299 270.6880 15.06428488255340
STARLINK-2378           
1 47916U 21021BJ  25297.80299093  .00000614  00000+0  60144-4 0  9997
2 47916  53.0512 151.6408 0002091  85.1895 274.9333 15.06401139255832
STARLINK-2405           
1 47919U 21021BM  25297.80115000  .00006568  00000+0  45947-3 0  9992
2 47919  53.0517 171.6466 0001496  87.3715 272.7445 15.06396138255550
STARLINK-1647           
1 47978U 21024B   25297.83108264  .00002473  00000+0  18480-3 0  9990
2 47978  53.0552 226.5137 0002207  89.9135 270.2107 15.06408699254085
